{"type":"FeatureCollection","features":[{"type":"Feature","properties":{"column":1,"placename":"Pioneerworks"},"geometry":{"type":"Point","coordinates":[-74.0121513,40.6792081]}},{"type":"Feature","properties":{"column":1,"placename":"Eyebeam"},"geometry":{"type":"Point","coordinates":[-73.934965,40.703368]}},{"type":"Feature","properties":{"column":1,"placename":"NEW INC"},"geometry":{"type":"Point","coordinates":[-73.9927702,40.7221318]}},{"type":"Feature","properties":{"column":1,"placename":"Mana Contemporary"},"geometry":{"type":"Point","coordinates":[-74.069048,40.73662]}},{"type":"Feature","properties":{"column":1,"placename":"Museum of the Moving Image"},"geometry":{"type":"Point","coordinates":[-73.9239496,40.7563454]}},{"type":"Feature","properties":{"column":1,"placename":"Brooklyn Research"},"geometry":{"type":"Point","coordinates":[-73.948835,40.699929]}},{"type":"Feature","properties":{"column":1,"placename":"Issue Project Room"},"geometry":{"type":"Point","coordinates":[-73.9897215,40.6908467]}},{"type":"Feature","properties":{"column":1,"placename":"The Kitchen"},"geometry":{"type":"Point","coordinates":[-74.0068073,40.7454908]}},{"type":"Feature","properties":{"column":1,"placename":"Friedman Gallery"},"geometry":{"type":"Point","coordinates":[-74.0072644,40.7260322]}},{"type":"Feature","properties":{"column":1,"placename":"EMPAC(Experimental Media and Performing Arts Center)"},"geometry":{"type":"Point","coordinates":[-73.6841797,42.7289162]}}]}